LIME                    
1 62648U 25009AR  26068.73906781  .00013254  00000+0  47723-3 0  9995
2 62648  97.3985 151.4831 0001635  35.9029 324.2320 15.28703313 63766
STARLINK-32949          
1 63145U 25043P   26068.26149331  .00049878  00000+0  18119-2 0  9991
2 63145  43.0039  18.9239 0001900 272.7351  87.3283 15.27541889 57866
